OBJECT_NAME,OBJECT_ID,EPOCH,MEAN_MOTION,ECCENTRICITY,INCLINATION,RA_OF_ASC_NODE,ARG_OF_PERICENTER,MEAN_ANOMALY,EPHEMERIS_TYPE,CLASSIFICATION_TYPE,NORAD_CAT_ID,ELEMENT_SET_NO,REV_AT_EPOCH,BSTAR,MEAN_MOTION_DOT,MEAN_MOTION_DDOT
UTMN 2 (RS27S),2023-091AP,2026-07-17T03:55:25.537728,15.32729298,.0006539,97.5069,265.8124,342.5616,17.5400,0,U,57203,999,16913,.20762E-3,.6485E-4,0
SITRO-AIS 12 (SMIRENNIY),2023-091AQ,2026-07-17T04:13:15.816000,15.39452874,.0004531,97.5076,269.6485,325.0506,35.0441,0,U,57204,999,16938,.25996E-3,.10106E-3,0
SITRO-AIS 11 (SHEFFER),2023-091AU,2026-07-17T04:20:23.348256,15.39898274,.0004455,97.5074,269.9195,324.4229,35.6719,0,U,57208,999,16940,.27819E-3,.10982E-3,0
H2SAT (HEINRICH HERTZ),2023-093A,2026-07-17T02:37:38.538048,1.00274972,.0000278,0.0265,101.0885,342.0723,251.8672,0,U,57213,999,1121,0,-.8E-7,0
KUZGTU 1 (RS47S),2023-091AV,2026-07-17T04:19:37.576992,15.30496161,.0009875,97.5045,262.9769,359.0679,1.0542,0,U,57217,999,16896,.21623E-3,.6306E-4,0
QIANKUN-1,2023-103B,2026-07-16T14:42:06.791040,16.07858994,.0035589,96.1400,240.3808,130.8922,229.5456,0,U,57422,999,17202,.75371E-5,.6165E-4,.16552E-5
FENGYUN 3F,2023-111A,2026-07-17T04:53:26.157408,14.19943611,.000123,98.6824,267.6512,75.8773,284.2540,0,U,57490,999,15312,.23606E-4,.7E-7,0
HJ-2F,2023-116A,2026-07-17T05:19:22.056384,15.22710626,.0006461,97.3848,202.9263,303.8359,56.2262,0,U,57519,999,16332,.16975E-3,.3889E-4,0
XRISM,2023-137A,2026-07-17T03:35:53.099232,15.12677853,.0007867,31.0009,165.4775,265.6103,94.3637,0,U,57800,999,15740,.1212E-3,.2273E-4,0
METEOR-M2 4,2024-039A,2026-07-17T03:34:42.397248,14.22432278,.000826,98.7027,157.0733,83.9390,276.2729,0,U,59051,999,12352,.15948E-4,-.8E-7,0
GRBBETA,2024-128C,2026-07-17T03:36:26.242272,15.06815785,.0036777,61.9898,111.1258,141.0827,219.2924,0,U,60237,999,11078,.12511E-3,.1679E-4,0
TRANSPORTER-11 OBJECT A,2024-149A,2026-07-16T17:16:27.625152,15.33354404,.0004925,97.3727,277.5653,112.7760,247.4003,0,U,60468,999,10658,.15118E-3,.4795E-4,0
WARATAH SEED-1,2024-149B,2026-07-17T04:51:39.547584,15.36648826,.0003253,97.3682,278.8190,117.0387,243.1190,0,U,60469,999,10672,.19785E-3,.6999E-4,0
PHISAT 2,2024-149C,2026-07-17T04:08:39.065568,15.31445254,.0003191,97.3750,277.2285,119.8786,240.2773,0,U,60470,999,10658,.16522E-3,.494E-4,0
LEMUR-2-TOMATOKECHUP,2024-149D,2026-07-16T11:34:09.058656,15.36597838,.0003348,97.3796,279.6140,120.3105,239.8471,0,U,60471,999,10666,.16419E-3,.5784E-4,0
CONNECTA IOT-1,2024-149E,2026-07-17T04:11:16.497600,15.23750716,.000295,97.3749,273.9619,138.1796,221.9667,0,U,60472,999,10636,.89878E-4,.209E-4,0
LOPEN,2024-149F,2026-07-16T18:11:25.469952,15.40492360,.000291,97.3774,281.3727,131.6272,228.5224,0,U,60473,999,10681,.22227E-3,.8929E-4,0
ROCK,2024-149G,2026-07-16T17:52:20.568000,15.40480155,.0003212,97.3770,281.3732,129.2822,230.8709,0,U,60474,999,10681,.22698E-3,.9117E-4,0
CONNECTA IOT-3,2024-149H,2026-07-16T17:39:45.069984,15.23762390,.0004031,97.3726,273.2747,139.1346,221.0194,0,U,60475,999,10630,.93467E-4,.2178E-4,0
QUBE,2024-149J,2026-07-17T00:57:14.677344,15.48560853,.0003326,97.3774,285.0779,125.3824,234.7738,0,U,60476,999,10708,.29434E-3,.15603E-3,0
WREN-1,2024-149L,2026-07-16T18:54:35.196768,15.42666517,.0005434,97.3763,282.2343,146.0317,214.1279,0,U,60478,999,10688,.29337E-3,.1271E-3,0
TOMORROW-S1,2024-149M,2026-07-16T18:31:54.494400,15.33106176,.0004137,97.3744,278.1578,127.5691,232.5928,0,U,60479,999,10662,.13256E-3,.4161E-4,0
FLOCK 4BE-18,2024-149N,2026-07-16T19:05:30.731712,15.42743671,.0005121,97.3728,281.8533,139.2375,220.9256,0,U,60480,999,10687,.22014E-3,.9536E-4,0
FLOCK 4BE-7,2024-149P,2026-07-16T18:21:40.389120,15.41502393,.0004371,97.3753,281.1101,144.7084,215.4453,0,U,60481,999,10680,.34444E-3,.14368E-3,0
TOMORROW-S2,2024-149T,2026-07-17T04:38:37.821120,15.33157645,.0003985,97.3812,279.0962,144.3255,215.8254,0,U,60485,999,10668,.13081E-3,.4111E-4,0
FLOCK 4BE-36,2024-149U,2026-07-16T18:01:36.709248,15.43574538,.0004899,97.3743,282.5508,148.7509,211.4031,0,U,60486,999,10691,.23654E-3,.10545E-3,0
FLOCK 4BE-25,2024-149V,2026-07-17T04:30:01.208736,15.39578350,.0003755,97.3794,281.5564,137.9115,222.2419,0,U,60487,999,10685,.2102E-3,.8189E-4,0
FLOCK 4BE-31,2024-149W,2026-07-16T21:11:15.406944,15.45201957,.0003862,97.3796,283.6327,147.3195,212.8294,0,U,60488,999,10696,.27086E-3,.12775E-3,0
