UTMN 2 (RS27S)          
1 57203U 23091AP  26198.16349002  .00006485  00000+0  20762-3 0  9995
2 57203  97.5069 265.8124 0006539 342.5616  17.5400 15.32729298169138
SITRO-AIS 12 (SMIRENNIY)
1 57204U 23091AQ  26198.17587750  .00010106  00000+0  25996-3 0  9990
2 57204  97.5076 269.6485 0004531 325.0506  35.0441 15.39452874169380
SITRO-AIS 11 (SHEFFER)  
1 57208U 23091AU  26198.18082579  .00010982  00000+0  27819-3 0  9992
2 57208  97.5074 269.9195 0004455 324.4229  35.6719 15.39898274169408
H2SAT (HEINRICH HERTZ)  
1 57213U 23093A   26198.10947382 -.00000008  00000+0  00000+0 0  9992
2 57213   0.0265 101.0885 0000278 342.0723 251.8672  1.00274972 11212
KUZGTU 1 (RS47S)        
1 57217U 23091AV  26198.18029603  .00006306  00000+0  21623-3 0  9993
2 57217  97.5045 262.9769 0009875 359.0679   1.0542 15.30496161168961
QIANKUN-1               
1 57422U 23103B   26197.61257860  .00006165  16552-5  75371-5 0  9999
2 57422  96.1400 240.3808 0035589 130.8922 229.5456 16.07858994172024
FENGYUN 3F              
1 57490U 23111A   26198.20377497  .00000007  00000+0  23606-4 0  9995
2 57490  98.6824 267.6512 0001230  75.8773 284.2540 14.19943611153122
HJ-2F                   
1 57519U 23116A   26198.22178306  .00003889  00000+0  16975-3 0  9993
2 57519  97.3848 202.9263 0006461 303.8359  56.2262 15.22710626163320
XRISM                   
1 57800U 23137A   26198.14992013  .00002273  00000+0  12120-3 0  9993
2 57800  31.0009 165.4775 0007867 265.6103  94.3637 15.12677853157405
METEOR-M2 4             
1 59051U 24039A   26198.14910182 -.00000008  00000+0  15948-4 0  9999
2 59051  98.7027 157.0733 0008260  83.9390 276.2729 14.22432278123522
GRBBETA                 
1 60237U 24128C   26198.15030373  .00001679  00000+0  12511-3 0  9998
2 60237  61.9898 111.1258 0036777 141.0827 219.2924 15.06815785110785
TRANSPORTER-11 OBJECT A 
1 60468U 24149A   26197.71976418  .00004795  00000+0  15118-3 0  9995
2 60468  97.3727 277.5653 0004925 112.7760 247.4003 15.33354404106582
WARATAH SEED-1          
1 60469U 24149B   26198.20254106  .00006999  00000+0  19785-3 0  9996
2 60469  97.3682 278.8190 0003253 117.0387 243.1190 15.36648826106722
PHISAT 2                
1 60470U 24149C   26198.17267437  .00004940  00000+0  16522-3 0  9995
2 60470  97.3750 277.2285 0003191 119.8786 240.2773 15.31445254106586
LEMUR-2-TOMATOKECHUP    
1 60471U 24149D   26197.48204929  .00005784  00000+0  16419-3 0  9998
2 60471  97.3796 279.6140 0003348 120.3105 239.8471 15.36597838106668
CONNECTA IOT-1          
1 60472U 24149E   26198.17449650  .00002090  00000+0  89878-4 0  9995
2 60472  97.3749 273.9619 0002950 138.1796 221.9667 15.23750716106364
LOPEN                   
1 60473U 24149F   26197.75793368  .00008929  00000+0  22227-3 0  9998
2 60473  97.3774 281.3727 0002910 131.6272 228.5224 15.40492360106818
ROCK                    
1 60474U 24149G   26197.74468250  .00009117  00000+0  22698-3 0  9999
2 60474  97.3770 281.3732 0003212 129.2822 230.8709 15.40480155106814
CONNECTA IOT-3          
1 60475U 24149H   26197.73593831  .00002178  00000+0  93467-4 0  9996
2 60475  97.3726 273.2747 0004031 139.1346 221.0194 15.23762390106302
QUBE                    
1 60476U 24149J   26198.03975321  .00015603  00000+0  29434-3 0  9998
2 60476  97.3774 285.0779 0003326 125.3824 234.7738 15.48560853107084
WREN-1                  
1 60478U 24149L   26197.78790737  .00012710  00000+0  29337-3 0  9995
2 60478  97.3763 282.2343 0005434 146.0317 214.1279 15.42666517106886
TOMORROW-S1             
1 60479U 24149M   26197.77215850  .00004161  00000+0  13256-3 0  9997
2 60479  97.3744 278.1578 0004137 127.5691 232.5928 15.33106176106625
FLOCK 4BE-18            
1 60480U 24149N   26197.79549458  .00009536  00000+0  22014-3 0  9998
2 60480  97.3728 281.8533 0005121 139.2375 220.9256 15.42743671106873
FLOCK 4BE-7             
1 60481U 24149P   26197.76505080  .00014368  00000+0  34444-3 0  9998
2 60481  97.3753 281.1101 0004371 144.7084 215.4453 15.41502393106804
TOMORROW-S2             
1 60485U 24149T   26198.19349330  .00004111  00000+0  13081-3 0  9993
2 60485  97.3812 279.0962 0003985 144.3255 215.8254 15.33157645106687
FLOCK 4BE-36            
1 60486U 24149U   26197.75111932  .00010545  00000+0  23654-3 0  9995
2 60486  97.3743 282.5508 0004899 148.7509 211.4031 15.43574538106917
FLOCK 4BE-25            
1 60487U 24149V   26198.18751399  .00008189  00000+0  21020-3 0  9997
2 60487  97.3794 281.5564 0003755 137.9115 222.2419 15.39578350106852
FLOCK 4BE-31            
1 60488U 24149W   26197.88281721  .00012775  00000+0  27086-3 0  9995
2 60488  97.3796 283.6327 0003862 147.3195 212.8294 15.45201957106968
